IRIDIUM 36              
1 24967U 97056C   25029.83357048  .00000875  00000+0  28652-3 0  9996
2 24967  86.3942 231.0686 0002220  91.2046 268.9405 14.37380448432348
IRIDIUM 39              
1 25042U 97069D   25029.95169095  .00001241  00000+0  32220-3 0  9995
2 25042  86.3888 270.4084 0019731  52.1195 308.1789 14.48866856428944
IRIDIUM 38              
1 25043U 97069E   25029.69615064  .00000912  00000+0  29606-3 0  9997
2 25043  86.3956 291.4507 0002328 133.9870 226.1520 14.37889422426050
IRIDIUM 42              
1 25077U 97077A   25029.46341054  .00000948  00000+0  31880-3 0  9999
2 25077  86.3970 297.5499 0001798 102.9622 257.1776 14.36143392421286
IRIDIUM 44              
1 25078U 97077B   25029.93063897  .00000892  00000+0  27692-3 0  9992
2 25078  86.3942 279.6327 0003733 102.6088 257.5529 14.40012847423806
IRIDIUM 45              
1 25104U 97082A   25029.26641846  .00027539  00000+0  11506-2 0  9993
2 25104  86.3624 115.0265 0133017 129.5209 231.7880 15.15667734431200
IRIDIUM 24              
1 25105U 97082B   25029.59501190  .00001135  00000+0  34086-3 0  9990
2 25105  86.3954 139.0764 0011911 166.4019 193.7504 14.41851529423244
IRIDIUM 51              
1 25262U 98018A   25029.28579733  .00040889  00000+0  12338-2 0  9992
2 25262  86.3909 123.9975 0108920  60.4530 300.7522 15.28352941425738
